              M50 Cartesian                         J2K Cartesian  
    -----------------------------------       --------------------------------
     X    =       -6122365.33                 X    =        -1792706.85
     Y    =      -14704871.39  feet           Y    =        -4502502.42  meter
     Z    =      -15623536.09                 Z    =        -4770940.57
     XDOT =      23457.775196                 XDOT =        7163.632864
     YDOT =       -298.519366  feet/sec       YDOT =         -10.957044  meter/sec
     ZDOT =      -8926.746643                 ZDOT =       -2686.106263
 
              TDR Cartesian                         TDR Cartesian  
    -----------------------------------       --------------------------------
     X    =         507021.79                 X    =          154540.24
     Y    =      -15884282.04  feet           Y    =        -4841529.17  meter
     Z    =      -15660267.96                 Z    =        -4773249.68
     XDOT =      20426.548194                 XDOT =        6226.011890
     YDOT =       9293.057024  feet/sec       YDOT =        2832.523781  meter/sec
     ZDOT =      -8779.977568                 ZDOT =       -2676.137163
  
  
    The mean element set is posted at the UTC for which position is
    just north of the next ascending node relative to the above
    vector time
 
 
    TWO LINE MEAN ELEMENT SET
  
    ISS
    1 25544U 98067A   14039.57131462  .00016717  00000-0  10270-3 0  9014
    2 25544  51.6481  17.1589 0003772 110.9785 249.1770 15.50134685 31370
  
  
    Satellite: ISS
    Catalog Number: 25544
    Epoch time:      14039.57131462   =   yrday.fracday
    Element set:     901
    Inclination:       51.6481  deg
    RA of node:        17.1589  deg
    Eccentricity:     .0003772     
    Arg of perigee:   110.9785  deg
    Mean anomaly:     249.1770  deg
    Mean motion:   15.50134685  rev/day
    Decay rate:    1.67170E-04  rev/day^2
    Epoch rev:            3137
    Checksum:              308
 
 
    Coasting Arc #3 (Orbit 3152)
    ---------------------------------------
 
    Vector Time (GMT): 2014/040/13:12:36.088
    Vector Time (MET): N/A
    Weight (LBS)     : 911651.1
 
              M50 Cartesian                         M50 Keplerian  
    -----------------------------------       --------------------------------
     X    =        1785675.93                 A    =         6790541.38  meter
     Y    =        4331534.57  meter          E    =           .0010242
     Z    =        4909440.80                 I    =           51.71122
     XDOT =      -7295.081259                 Wp   =          119.31402
     YDOT =        357.159509  meter/sec      RA   =           11.78155  deg
     ZDOT =       2329.707436                 TA   =          307.86135
                                              MA   =          307.95397
                                              Ha   =            228.401  n.mi
                                              Hp   =            219.630
 
              M50 Cartesian                         J2K Cartesian  
    -----------------------------------       --------------------------------
     X    =        5858516.82                 X    =         1713258.96
     Y    =       14211071.42  feet           Y    =         4351098.31  meter
     Z    =       16107089.23                 Z    =         4917939.24
     XDOT =     -23933.993631                 XDOT =       -7309.849680
     YDOT =       1171.783166  feet/sec       YDOT =         275.498710  meter/sec
     ZDOT =       7643.397101                 ZDOT =        2294.233715
 
              TDR Cartesian                         TDR Cartesian  
    -----------------------------------       --------------------------------
     X    =        -285274.16                 X    =          -86951.56
     Y    =       15331760.98  feet           Y    =         4673120.75  meter
     Z    =       16142206.09                 Z    =         4920144.42
     XDOT =     -21397.575135                 XDOT =       -6521.980901
     YDOT =      -8317.367970  feet/sec       YDOT =       -2535.133757  meter/sec
     ZDOT =       7493.597277                 ZDOT =        2284.048450
  
  
    The mean element set is posted at the UTC for which position is
    just north of the next ascending node relative to the above
    vector time
 
 
    TWO LINE MEAN ELEMENT SET
  
    ISS
    1 25544U 98067A   14040.60278749  .00016717  00000-0  10270-3 0  9021
    2 25544  51.6485  12.0489 0003643 116.5529 243.5996 15.50199103 31534
  
  
    Satellite: ISS
    Catalog Number: 25544
    Epoch time:      14040.60278749   =   yrday.fracday
    Element set:     902
    Inclination:       51.6485  deg
    RA of node:        12.0489  deg
    Eccentricity:     .0003643     
    Arg of perigee:   116.5529  deg
    Mean anomaly:     243.5996  deg
    Mean motion:   15.50199103  rev/day
    Decay rate:    1.67170E-04  rev/day^2
    Epoch rev:            3153
    Checksum:              309
 
 
    Coasting Arc #4 (Orbit 3167)
    ---------------------------------------
 
    Vector Time (GMT): 2014/041/13:12:36.088
    Vector Time (MET): N/A
    Weight (LBS)     : 911651.1
 
              M50 Cartesian                         M50 Keplerian  
    -----------------------------------       --------------------------------
     X    =       -1651394.59                 A    =         6789965.51  meter
     Y    =       -4228399.97  meter          E    =           .0016026
     Z    =       -5063720.08                 I    =           51.67885
     XDOT =       7385.906148                 Wp   =           84.61019
     YDOT =       -622.368377  meter/sec      RA   =            6.82682  deg
     ZDOT =      -1892.712767                 TA   =          167.02783
                                              MA   =          166.98655
                                              Ha   =            228.458  n.mi
                                              Hp   =            219.581
 
              M50 Cartesian                         J2K Cartesian  
    -----------------------------------       --------------------------------
     X    =       -5417961.24                 X    =        -1579391.52
     Y    =      -13872703.31  feet           Y    =        -4246464.44  meter
     Z    =      -16613254.87                 Z    =        -5071567.18
     XDOT =      24231.975550                 XDOT =        7401.510677
     YDOT =      -2041.891002  feet/sec       YDOT =        -539.687243  meter/sec
     ZDOT =      -6209.687555                 ZDOT =       -1856.795898
 
              TDR Cartesian                         TDR Cartesian  
    -----------------------------------       --------------------------------
     X    =         305045.60                 X    =           92977.90
     Y    =      -14853823.09  feet           Y    =        -4527445.28  meter
     Z    =      -16645639.82                 Z    =        -5073591.02
     XDOT =      22168.036210                 XDOT =        6756.817437
     YDOT =       7230.417657  feet/sec       YDOT =        2203.831302  meter/sec
     ZDOT =      -6057.973717                 ZDOT =       -1846.470389
  
  
    The mean element set is posted at the UTC for which position is
    just north of the next ascending node relative to the above
    vector time
 
 
    TWO LINE MEAN ELEMENT SET
  
    ISS
    1 25544U 98067A   14041.56977808  .00016717  00000-0  10270-3 0  9030
    2 25544  51.6487   7.2564 0003703 118.1337 242.0188 15.50193294 31686
  
  
    Satellite: ISS
    Catalog Number: 25544
    Epoch time:      14041.56977808   =   yrday.fracday
    Element set:     903
    Inclination:       51.6487  deg
    RA of node:         7.2564  deg
    Eccentricity:     .0003703     
    Arg of perigee:   118.1337  deg
    Mean anomaly:     242.0188  deg
    Mean motion:   15.50193294  rev/day
    Decay rate:    1.67170E-04  rev/day^2
    Epoch rev:            3168
    Checksum:              310
 
 
    Coasting Arc #5 (Orbit 3183)
    ---------------------------------------
 
    Vector Time (GMT): 2014/042/13:12:36.088
    Vector Time (MET): N/A
    Weight (LBS)     : 911651.1
 
              M50 Cartesian                         M50 Keplerian  
    -----------------------------------       --------------------------------
     X    =        1511678.03                 A    =         6789297.03  meter
     Y    =        4136332.62  meter          E    =           .0008098
     Z    =        5162370.96                 I    =           51.64694
     XDOT =      -7472.202044                 Wp   =          123.87298
     YDOT =        907.598008  meter/sec      RA   =            1.87131  deg
     ZDOT =       1454.794569                 TA   =          312.08912
                                              MA   =          312.15796
                                              Ha   =            228.247  n.mi
                                              Hp   =            219.624
 
              M50 Cartesian                         J2K Cartesian  
    -----------------------------------       --------------------------------
     X    =        4959573.57                 X    =         1440235.71
     Y    =       13570645.08  feet           Y    =         4152837.88  meter
     Z    =       16936912.59                 Z    =         5169540.65
     XDOT =     -24515.098571                 XDOT =       -7488.862425
     YDOT =       2977.683754  feet/sec       YDOT =         823.945959  meter/sec
     ZDOT =       4772.948062                 ZDOT =        1418.455998
 
